{
  "type": "FeatureCollection",
  "features": [
    {
      "type": "Feature",
      "properties": {
        "norad_id": 30680,
        "name": "FENGYUN 1C DEB",
        "group": "fengyun-1c-debris",
        "lat": -47.62457332105248,
        "lon": -167.123554861725,
        "alt_km": 877.054948229611,
        "timestamp": "2025-12-06T20:37:56.350264+00:00",
        "meta_object_name": "FENGYUN 1C DEB",
        "meta_object_id": "1999-025AQN",
        "meta_epoch": "2025-12-06T01:48:48.746880",
        "meta_mean_motion": 13.56022535,
        "meta_eccentricity": 0.0341477,
        "meta_inclination": 99.6281,
        "meta_ra_of_asc_node": 22.8318,
        "meta_arg_of_pericenter": 184.159,
        "meta_mean_anomaly": 175.6692,
        "meta_ephemeris_type": 0,
        "meta_classification_type": "U",
        "meta_norad_cat_id": 30680,
        "meta_element_set_no": 999,
        "meta_rev_at_epoch": 92163,
        "meta_bstar": 0.0065791149,
        "meta_mean_motion_dot": 6.667e-05,
        "meta_mean_motion_ddot": 0,
        "tle_line1": "1 30680U 99025AQN 25340.07556420  .00006667  00000+0  65791-2 0  9999",
        "tle_line2": "2 30680  99.6281  22.8318 0341477 184.1590 175.6692 13.56022535921631"
      },
      "geometry": {
        "type": "Point",
        "coordinates": [
          -167.123554861725,
          -47.62457332105248
        ]
      }
    },
    {
      "type": "Feature",
      "properties": {
        "norad_id": 30683,
        "name": "FENGYUN 1C DEB",
        "group": "fengyun-1c-debris",
        "lat": -38.91942030728799,
        "lon": -0.12306425552645565,
        "alt_km": 879.8229826465295,
        "timestamp": "2025-12-06T20:37:56.350277+00:00",
        "meta_object_name": "FENGYUN 1C DEB",
        "meta_object_id": "1999-025AQR",
        "meta_epoch": "2025-12-06T13:02:53.171808",
        "meta_mean_motion": 14.00351086,
        "meta_eccentricity": 0.01384085,
        "meta_inclination": 99.4269,
        "meta_ra_of_asc_node": 351.8419,
        "meta_arg_of_pericenter": 241.5725,
        "meta_mean_anomaly": 285.1844,
        "meta_ephemeris_type": 0,
        "meta_classification_type": "U",
        "meta_norad_cat_id": 30683,
        "meta_element_set_no": 999,
        "meta_rev_at_epoch": 95464,
        "meta_bstar": 0.0023292805,
        "meta_mean_motion_dot": 3.7e-05,
        "meta_mean_motion_ddot": 0,
        "tle_line1": "1 30683U 99025AQR 25340.54367097  .00003700  00000+0  23293-2 0  9990",
        "tle_line2": "2 30683  99.4269 351.8419 0138408 241.5725 285.1844 14.00351086954640"
      },
      "geometry": {
        "type": "Point",
        "coordinates": [
          -0.12306425552645565,
          -38.91942030728799
        ]
      }
    },
    {
      "type": "Feature",
      "properties": {
        "norad_id": 30684,
        "name": "FENGYUN 1C DEB",
        "group": "fengyun-1c-debris",
        "lat": 56.69933652251749,
        "lon": -142.84953507700146,
        "alt_km": 1169.8452628201103,
        "timestamp": "2025-12-06T20:37:56.350289+00:00",
        "meta_object_name": "FENGYUN 1C DEB",
        "meta_object_id": "1999-025AQS",
        "meta_epoch": "2025-12-01T13:31:37.536960",
        "meta_mean_motion": 13.66771783,
        "meta_eccentricity": 0.02336022,
        "meta_inclination": 99.5313,
        "meta_ra_of_asc_node": 17.113,
        "meta_arg_of_pericenter": 298.0542,
        "meta_mean_anomaly": 59.7156,
        "meta_ephemeris_type": 0,
        "meta_classification_type": "U",
        "meta_norad_cat_id": 30684,
        "meta_element_set_no": 999,
        "meta_rev_at_epoch": 93476,
        "meta_bstar": 0.00093442149,
        "meta_mean_motion_dot": 8.93e-06,
        "meta_mean_motion_ddot": 0,
        "tle_line1": "1 30684U 99025AQS 25335.56362890  .00000893  00000+0  93442-3 0  9997",
        "tle_line2": "2 30684  99.5313  17.1130 0233602 298.0542  59.7156 13.66771783934763"
      },
      "geometry": {
        "type": "Point",
        "coordinates": [
          -142.84953507700146,
          56.69933652251749
        ]
      }
    },
    {
      "type": "Feature",
      "properties": {
        "norad_id": 30686,
        "name": "FENGYUN 1C DEB",
        "group": "fengyun-1c-debris",
        "lat": -38.386914430771675,
        "lon": -178.67143481232424,
        "alt_km": 756.6197125832487,
        "timestamp": "2025-12-06T20:37:56.350299+00:00",
        "meta_object_name": "FENGYUN 1C DEB",
        "meta_object_id": "1999-025AQU",
        "meta_epoch": "2025-12-06T06:23:48.266304",
        "meta_mean_motion": 14.73774985,
        "meta_eccentricity": 0.01441189,
        "meta_inclination": 99.0325,
        "meta_ra_of_asc_node": 173.4287,
        "meta_arg_of_pericenter": 140.7303,
        "meta_mean_anomaly": 275.3005,
        "meta_ephemeris_type": 0,
        "meta_classification_type": "U",
        "meta_norad_cat_id": 30686,
        "meta_element_set_no": 999,
        "meta_rev_at_epoch": 99506,
        "meta_bstar": 0.0014400885,
        "meta_mean_motion_dot": 0.00011069,
        "meta_mean_motion_ddot": 0,
        "tle_line1": "1 30686U 99025AQU 25340.26653086  .00011069  00000+0  14401-2 0  9996",
        "tle_line2": "2 30686  99.0325 173.4287 0144118 140.7303 275.3005 14.73774985995068"
      },
      "geometry": {
        "type": "Point",
        "coordinates": [
          -178.67143481232424,
          -38.386914430771675
        ]
      }
    },
    {
      "type": "Feature",
      "properties": {
        "norad_id": 30688,
        "name": "FENGYUN 1C DEB",
        "group": "fengyun-1c-debris",
        "lat": 65.92314079725898,
        "lon": 34.17023208961427,
        "alt_km": 776.9704689826212,
        "timestamp": "2025-12-06T20:37:56.350310+00:00",
        "meta_object_name": "FENGYUN 1C DEB",
        "meta_object_id": "1999-025AQW",
        "meta_epoch": "2025-12-06T16:00:47.946240",
        "meta_mean_motion": 14.3261966,
        "meta_eccentricity": 0.00148833,
        "meta_inclination": 98.701,
        "meta_ra_of_asc_node": 54.0195,
        "meta_arg_of_pericenter": 335.563,
        "meta_mean_anomaly": 179.7465,
        "meta_ephemeris_type": 0,
        "meta_classification_type": "U",
        "meta_norad_cat_id": 30688,
        "meta_element_set_no": 999,
        "meta_rev_at_epoch": 97173,
        "meta_bstar": 0.0028605439,
        "meta_mean_motion_dot": 7.743e-05,
        "meta_mean_motion_ddot": 0,
        "tle_line1": "1 30688U 99025AQW 25340.66722160  .00007743  00000+0  28605-2 0  9997",
        "tle_line2": "2 30688  98.7010  54.0195 0014883 335.5630 179.7465 14.32619660971739"
      },
      "geometry": {
        "type": "Point",
        "coordinates": [
          34.17023208961427,
          65.92314079725898
        ]
      }
    },
    {
      "type": "Feature",
      "properties": {
        "norad_id": 30689,
        "name": "FENGYUN 1C DEB",
        "group": "fengyun-1c-debris",
        "lat": 34.65092994659871,
        "lon": 153.3461476040513,
        "alt_km": 777.6693830440681,
        "timestamp": "2025-12-06T20:37:56.350321+00:00",
        "meta_object_name": "FENGYUN 1C DEB",
        "meta_object_id": "1999-025AQX",
        "meta_epoch": "2025-12-06T10:27:44.599968",
        "meta_mean_motion": 14.11754101,
        "meta_eccentricity": 0.01116137,
        "meta_inclination": 98.7077,
        "meta_ra_of_asc_node": 326.8543,
        "meta_arg_of_pericenter": 121.0762,
        "meta_mean_anomaly": 30.771,
        "meta_ephemeris_type": 0,
        "meta_classification_type": "U",
        "meta_norad_cat_id": 30689,
        "meta_element_set_no": 999,
        "meta_rev_at_epoch": 96801,
        "meta_bstar": 0.00062210472,
        "meta_mean_motion_dot": 1.16e-05,
        "meta_mean_motion_ddot": 0,
        "tle_line1": "1 30689U 99025AQX 25340.43593287  .00001160  00000+0  62210-3 0  9997",
        "tle_line2": "2 30689  98.7077 326.8543 0111613 121.0762  30.7710 14.11754101968016"
      },
      "geometry": {
        "type": "Point",
        "coordinates": [
          153.3461476040513,
          34.65092994659871
        ]
      }
    },
    {
      "type": "Feature",
      "properties": {
        "norad_id": 30690,
        "name": "FENGYUN 1C DEB",
        "group": "fengyun-1c-debris",
        "lat": 29.317724661364405,
        "lon": -93.97158377685281,
        "alt_km": 848.2972090532985,
        "timestamp": "2025-12-06T20:37:56.350332+00:00",
        "meta_object_name": "FENGYUN 1C DEB",
        "meta_object_id": "1999-025AQY",
        "meta_epoch": "2025-12-06T12:10:32.232864",
        "meta_mean_motion": 14.02288835,
        "meta_eccentricity": 0.01046821,
        "meta_inclination": 99.1595,
        "meta_ra_of_asc_node": 270.8728,
        "meta_arg_of_pericenter": 93.0279,
        "meta_mean_anomaly": 320.0214,
        "meta_ephemeris_type": 0,
        "meta_classification_type": "U",
        "meta_norad_cat_id": 30690,
        "meta_element_set_no": 999,
        "meta_rev_at_epoch": 95620,
        "meta_bstar": 0.0020538917,
        "meta_mean_motion_dot": 3.26e-05,
        "meta_mean_motion_ddot": 0,
        "tle_line1": "1 30690U 99025AQY 25340.50731751  .00003260  00000+0  20539-2 0  9997",
        "tle_line2": "2 30690  99.1595 270.8728 0104682  93.0279 320.0214 14.02288835956208"
      },
      "geometry": {
        "type": "Point",
        "coordinates": [
          -93.97158377685281,
          29.317724661364405
        ]
      }
    }
  ]
}